{
"type": "FeatureCollection",
"name": "Cables_25m_buffer_ply",
"crs": { "type": "name", "properties": { "name": "urn:ogc:def:crs:OGC:1.3:CRS84" } },
"features": [
{ "type": "Feature", "properties": { "id": 1, "Name": "Cable_1-GEO3_1_4", "Sector": "GEO3_1_4", "Comment": null }, "geometry": { "type": "MultiPolygon", "coordinates": [ [ [ [ 17.771075418035696, 54.826427294194076 ], [ 17.771057321344163, 54.826423213767477 ], [ 17.770097815047563, 54.826222645326517 ], [ 17.768674308765913, 54.825901359542463 ], [ 17.768665397930906, 54.825899420509728 ], [ 17.767357171851955, 54.825625241022045 ], [ 17.766687746176721, 54.825466416268618 ], [ 17.766675891643839, 54.825463733672777 ], [ 17.7651127764378, 54.825126921921211 ], [ 17.764744289202678, 54.82502085379852 ], [ 17.76439596740412, 54.824920588710214 ], [ 17.764048642798389, 54.825322805019603 ], [ 17.764783809990735, 54.825534423091945 ], [ 17.76482137565079, 54.825543845925857 ], [ 17.766397752219888, 54.825883515937683 ], [ 17.76706879626202, 54.826042724913975 ], [ 17.767083922203266, 54.826046102667483 ], [ 17.768395307981372, 54.826320944888444 ], [ 17.769818971409038, 54.826642266643397 ], [ 17.769828174541395, 54.826644266723889 ], [ 17.77078317628408, 54.826843893949274 ], [ 17.77186491136678, 54.827105942798163 ], [ 17.772223830463467, 54.827192887586932 ], [ 17.772525020291805, 54.826778454847855 ], [ 17.771075418035696, 54.826427294194076 ] ] ] ] } },
{ "type": "Feature", "properties": { "id": 2, "Name": "Cable_2-GEO3_1_4", "Sector": "GEO3_1_4", "Comment": null }, "geometry": { "type": "MultiPolygon", "coordinates": [ [ [ [ 17.774607242436236, 54.823588023553761 ], [ 17.774240982199206, 54.823520299690585 ], [ 17.773709969139791, 54.823399783372082 ], [ 17.773702188765515, 54.823398072793189 ], [ 17.773157028321215, 54.823282052580495 ], [ 17.772583381376776, 54.823137393535617 ], [ 17.771887011839652, 54.822946719197503 ], [ 17.771509901752001, 54.822794721029645 ], [ 17.771486113840908, 54.822785858049009 ], [ 17.770908219540328, 54.82258734782571 ], [ 17.770380831502958, 54.822405410496188 ], [ 17.770368587089102, 54.822401358504464 ], [ 17.769679712644582, 54.822182872770689 ], [ 17.76967885843785, 54.822182602646528 ], [ 17.769079075107307, 54.821993494859782 ], [ 17.769070166133268, 54.821990771765471 ], [ 17.768532731184926, 54.821831609264748 ], [ 17.768074771272278, 54.821682068543211 ], [ 17.767736010629637, 54.821571448940759 ], [ 17.76735284963468, 54.821962657098993 ], [ 17.768156480272644, 54.82222507464347 ], [ 17.768170443497368, 54.822229419700726 ], [ 17.768710455557088, 54.822389345896966 ], [ 17.769305391558802, 54.822576925908024 ], [ 17.769987657930887, 54.822793316494554 ], [ 17.77050930307098, 54.822973273262058 ], [ 17.770509928493865, 54.822973488559562 ], [ 17.771075965830743, 54.823167926574513 ], [ 17.771468109316245, 54.823325984707765 ], [ 17.771524117864441, 54.82334476463032 ], [ 17.77225531040671, 54.823544974513283 ], [ 17.772266298956286, 54.823547863588978 ], [ 17.772855943091514, 54.823696557013257 ], [ 17.772877111662048, 54.82370147372157 ], [ 17.773429080060833, 54.823818943026026 ], [ 17.773967924900148, 54.823941236984034 ], [ 17.77399160047997, 54.823946106785741 ], [ 17.774392688449556, 54.824020270596876 ], [ 17.774439114769208, 54.824027068327204 ], [ 17.774944865494803, 54.824082254563358 ], [ 17.775327300260084, 54.82412398337771 ], [ 17.775471842792726, 54.823682364925055 ], [ 17.774607242436236, 54.823588023553761 ] ] ] ] } },
{ "type": "Feature", "properties": { "id": 3, "Name": "Cable_3-GEO3_4_2", "Sector": "GEO3_4_2", "Comment": null }, "geometry": { "type": "MultiPolygon", "coordinates": [ [ [ [ 17.793717173156743, 54.829659379636738 ], [ 17.793233916298028, 54.829534791567724 ], [ 17.793212939068852, 54.829529801435001 ], [ 17.792575433075463, 54.829390550262545 ], [ 17.792556478182416, 54.829386729449176 ], [ 17.792289689545747, 54.829337369335228 ], [ 17.791666833936354, 54.829221405503731 ], [ 17.791218969303163, 54.8291249734365 ], [ 17.790874399096097, 54.829044146848538 ], [ 17.790513780103169, 54.828959554271549 ], [ 17.790220716118377, 54.829375928959088 ], [ 17.790931132166783, 54.829542574501446 ], [ 17.790941633069036, 54.829544936049793 ], [ 17.791402990875646, 54.829644273559538 ], [ 17.791419538578321, 54.829647593604626 ], [ 17.792051076166953, 54.82976517403776 ], [ 17.792051751445364, 54.829765299367786 ], [ 17.792309317431553, 54.829812953221598 ], [ 17.792926822180643, 54.829947835730806 ], [ 17.793403029666287, 54.830070606637925 ], [ 17.793409675474486, 54.830072277303906 ], [ 17.793608610769322, 54.830121019761009 ], [ 17.79396693647335, 54.830208814404131 ], [ 17.794271093175396, 54.829795097863652 ], [ 17.793717173156743, 54.829659379636738 ] ] ] ] } },
{ "type": "Feature", "properties": { "id": 4, "Name": "Cable_4-GEO3_4_1", "Sector": "GEO3_4_1", "Comment": null }, "geometry": { "type": "MultiPolygon", "coordinates": [ [ [ [ 17.794337871509686, 54.835916755439015 ], [ 17.79432737093645, 54.835914769512478 ], [ 17.793617229466562, 54.835786873442714 ], [ 17.793575064403225, 54.835780747489565 ], [ 17.793315575513777, 54.835751831344908 ], [ 17.793301804378171, 54.835750444282894 ], [ 17.793186093120685, 54.835740021463231 ], [ 17.79298355488018, 54.835682745335298 ], [ 17.79296084326257, 54.835676835007597 ], [ 17.792886221152511, 54.835659051307715 ], [ 17.792812494692296, 54.835646235774256 ], [ 17.79263035689851, 54.83562563921398 ], [ 17.792536419311023, 54.835611086812165 ], [ 17.792528778351347, 54.835609950889797 ], [ 17.79246356500548, 54.835600661816002 ], [ 17.792420869258827, 54.83559048648776 ], [ 17.792212680155423, 54.835536951417197 ], [ 17.79214831676957, 54.835524160986509 ], [ 17.792025142465519, 54.835506457849512 ], [ 17.791757708599018, 54.835453992679454 ], [ 17.791389103479929, 54.835381678549055 ], [ 17.791138536706086, 54.835807206337776 ], [ 17.791789996344598, 54.835935011023892 ], [ 17.791821209497513, 54.835940305699104 ], [ 17.791927029070365, 54.835955514579048 ], [ 17.792108906962543, 54.836002283881712 ], [ 17.792118758644989, 54.836004723931794 ], [ 17.792193381046086, 54.836022508103909 ], [ 17.792248682436615, 54.836032971351358 ], [ 17.792338395989564, 54.836045750292406 ], [ 17.79244145335894, 54.836061715500065 ], [ 17.792467519978963, 54.836065204061562 ], [ 17.79262483010282, 54.836082993102458 ], [ 17.792652172674398, 54.836089509304614 ], [ 17.792896493744717, 54.836158601349446 ], [ 17.793007751054613, 54.836178831763178 ], [ 17.793174840306367, 54.836193882571798 ], [ 17.793406088307542, 54.836219651729451 ], [ 17.794090175837596, 54.836342855605544 ], [ 17.794183677169862, 54.836361391241375 ], [ 17.794551889362246, 54.836434384493948 ], [ 17.794804806654504, 54.836009319324781 ], [ 17.794337871509686, 54.835916755439015 ] ] ] ] } }
]
}
