{
"type": "FeatureCollection",
"name": "Clearance Corridor",
"crs": { "type": "name", "properties": { "name": "urn:ogc:def:crs:OGC:1.3:CRS84" } },
"features": [
{ "type": "Feature", "properties": { "fid": 3.0, "TYPE": "Clearance Corridor", "Location": "Fishing Tunnel" }, "geometry": { "type": "MultiPolygon", "coordinates": [ [ [ [ 17.800246953609477, 54.806983274633822 ], [ 17.797767429084498, 54.806742883343652 ], [ 17.802952844624688, 54.820752207934824 ], [ 17.805264813758377, 54.820496188563361 ], [ 17.800246953609477, 54.806983274633822 ] ] ] ] } },
{ "type": "Feature", "properties": { "fid": 1.0, "TYPE": "Clearance Corridor", "Location": "Tunnel 1 &2" }, "geometry": { "type": "MultiPolygon", "coordinates": [ [ [ [ 17.779969934282427, 54.812004107162309 ], [ 17.759381766011089, 54.832923342185538 ], [ 17.759381761541938, 54.832923347125323 ], [ 17.763071519959951, 54.834003712710555 ], [ 17.783513816329037, 54.813222934497958 ], [ 17.783549958439316, 54.813186152220347 ], [ 17.783557465101932, 54.813178511048548 ], [ 17.783569820505253, 54.813165929085137 ], [ 17.783581577714067, 54.813153948943707 ], [ 17.783594461966665, 54.813140809660545 ], [ 17.783606476401363, 54.813128544878523 ], [ 17.783619233637896, 54.813115505837899 ], [ 17.783631314885401, 54.813103140017709 ], [ 17.783643857010567, 54.813090281426582 ], [ 17.783656248551328, 54.813077553767933 ], [ 17.783668886844954, 54.81306454600994 ], [ 17.783681399712286, 54.813051638225318 ], [ 17.783694208204551, 54.813038392852334 ], [ 17.783706527937941, 54.813025618769601 ], [ 17.783719518510697, 54.813012110176757 ], [ 17.783732137801373, 54.812998946968506 ], [ 17.783744943742633, 54.812985544788866 ], [ 17.783757726064142, 54.81297212012732 ], [ 17.7837704563164, 54.812958700098804 ], [ 17.783783300567645, 54.812945106273048 ], [ 17.783796437093777, 54.812931145025338 ], [ 17.78380893250463, 54.812917806740209 ], [ 17.783822053389965, 54.812903736096231 ], [ 17.783834983520965, 54.812889802873698 ], [ 17.783847823706811, 54.812875896466075 ], [ 17.783860599485845, 54.812861986564563 ], [ 17.783873635317004, 54.812847715138993 ], [ 17.783886545279486, 54.812833500185143 ], [ 17.783899571943365, 54.812819070846174 ], [ 17.783912388444772, 54.812804785939704 ], [ 17.783930271051545, 54.812784725678064 ], [ 17.784072185173493, 54.812618546533301 ], [ 17.784209329930047, 54.812444177690743 ], [ 17.784336800658451, 54.812267376346419 ], [ 17.784454468681364, 54.812088320932602 ], [ 17.784562211794086, 54.811907197804636 ], [ 17.784659924282703, 54.811724185103962 ], [ 17.784744663309553, 54.81154546598048 ], [ 17.784754325980227, 54.811523613827795 ], [ 17.784761143078271, 54.811508026290085 ], [ 17.784767995742918, 54.811492188177141 ], [ 17.784774667892101, 54.81147660495904 ], [ 17.784781176340569, 54.811461248391481 ], [ 17.784787792970093, 54.811445481245563 ], [ 17.784794049248582, 54.811430428959447 ], [ 17.784800464122753, 54.811414850956723 ], [ 17.784806718433085, 54.811399525840123 ], [ 17.784812854767889, 54.811384359035088 ], [ 17.784818902562758, 54.811369286049178 ], [ 17.784824940386851, 54.811354117186369 ], [ 17.784830792412649, 54.811339302282569 ], [ 17.784836787519644, 54.811324014090211 ], [ 17.784842463378641, 54.811309439353806 ], [ 17.784848243365921, 54.811294499504946 ], [ 17.78485389286061, 54.811279806302224 ], [ 17.78485967473847, 54.811264681216599 ], [ 17.784865098168574, 54.811250416705988 ], [ 17.78487057018863, 54.811235951865335 ], [ 17.784875846707791, 54.81122193910884 ], [ 17.784881576321233, 54.811206658660971 ], [ 17.784886721204142, 54.81119288518142 ], [ 17.784892073282162, 54.811178508171501 ], [ 17.784897490214195, 54.811163913420472 ], [ 17.784902504404162, 54.811150369052001 ], [ 17.786874321207485, 54.805793811498155 ], [ 17.782839877313283, 54.80530193234528 ], [ 17.780753395490162, 54.810946882435729 ], [ 17.78057517380628, 54.811280045179309 ], [ 17.780350663461196, 54.811592136888905 ], [ 17.779969934282427, 54.812004107162309 ] ] ] ] } },
{ "type": "Feature", "properties": { "fid": 2.0, "TYPE": "Clearance Corridor", "Location": "Tunnel 3" }, "geometry": { "type": "MultiPolygon", "coordinates": [ [ [ [ 17.794209239471471, 54.806513183522618 ], [ 17.791651496609965, 54.806349167843429 ], [ 17.790038766781635, 54.811050588570431 ], [ 17.790032017131804, 54.811068963743971 ], [ 17.790021146251654, 54.811098572071607 ], [ 17.790012400354939, 54.811122414691845 ], [ 17.790003013341643, 54.811148040568177 ], [ 17.789993212863024, 54.811174844715943 ], [ 17.789984039686676, 54.811199991412053 ], [ 17.78997450996556, 54.811226188444095 ], [ 17.789965192590287, 54.811251885413569 ], [ 17.789955707748042, 54.811278142258139 ], [ 17.789946289685425, 54.811304324564531 ], [ 17.789936908347634, 54.811330527934203 ], [ 17.78992757071838, 54.81135674535772 ], [ 17.789918263778066, 54.811383026201014 ], [ 17.789908967849829, 54.811409439676062 ], [ 17.78989969868832, 54.811435955114312 ], [ 17.789890534469013, 54.811462361483812 ], [ 17.789881342670746, 54.811489054795267 ], [ 17.789872265609766, 54.811515636003072 ], [ 17.78986318632926, 54.811542461801828 ], [ 17.789854199877457, 54.811569266526533 ], [ 17.789845260437399, 54.811596201208935 ], [ 17.789836421454758, 54.81162311939368 ], [ 17.789827638544001, 54.811650171124178 ], [ 17.789818934992908, 54.81167730085518 ], [ 17.789810357139242, 54.811704378344828 ], [ 17.789801820320246, 54.811731687270459 ], [ 17.789793387436827, 54.811759044492831 ], [ 17.789785100139376, 54.811786329012889 ], [ 17.789776857655017, 54.81181389043148 ], [ 17.789768746607326, 54.811841458520561 ], [ 17.789759839987283, 54.811872254212119 ], [ 17.789699979123757, 54.812096489001192 ], [ 17.789648558726512, 54.812326924811138 ], [ 17.789606751257015, 54.812559016927835 ], [ 17.789574597595877, 54.812792423920968 ], [ 17.789552129393144, 54.813026803002444 ], [ 17.789539368911996, 54.813261810859174 ], [ 17.789536371110788, 54.813493844887965 ], [ 17.789536740799328, 54.813525603403576 ], [ 17.789537202896113, 54.813553599476883 ], [ 17.789537792827282, 54.813581414586231 ], [ 17.789538509888668, 54.813609261211901 ], [ 17.789539346814362, 54.813637038447716 ], [ 17.789540300466502, 54.813664803182782 ], [ 17.789541357288332, 54.81369232209498 ], [ 17.789542522051505, 54.813719859486937 ], [ 17.789543788516649, 54.813747373567615 ], [ 17.789545150705234, 54.813774837020567 ], [ 17.789546597473546, 54.813802130158578 ], [ 17.789548140647526, 54.813829561906381 ], [ 17.789549751081097, 54.813856701170117 ], [ 17.789551444249263, 54.813883895322384 ], [ 17.789553210093867, 54.813911052645423 ], [ 17.789555026122308, 54.813937908523066 ], [ 17.789556924399221, 54.813965004454808 ], [ 17.789558872546092, 54.813991937917244 ], [ 17.789560870687694, 54.814018778843845 ], [ 17.789562918327686, 54.814045582668285 ], [ 17.789565004077847, 54.814072261138634 ], [ 17.789567134228093, 54.814098952701187 ], [ 17.789569302333046, 54.814125630877413 ], [ 17.789571469353181, 54.814151875784972 ], [ 17.789573684287227, 54.81417833633207 ], [ 17.789575920207831, 54.81420473993002 ], [ 17.789578181586052, 54.814231190249288 ], [ 17.789580465247141, 54.814257699544498 ], [ 17.789582744618734, 54.814284010060497 ], [ 17.789585043823301, 54.814310450236384 ], [ 17.789586940264385, 54.814332218043845 ], [ 17.791993037485078, 54.843190723272791 ], [ 17.794552237716363, 54.843208424480537 ], [ 17.791918688468698, 54.814264865100263 ], [ 17.791916760223259, 54.814242746891047 ], [ 17.791914387844347, 54.814215483294817 ], [ 17.791912222162832, 54.814190501707252 ], [ 17.79190997492508, 54.814164432657968 ], [ 17.791907795161432, 54.814138954121596 ], [ 17.791905582324315, 54.814112840884263 ], [ 17.791903434426693, 54.814087198835942 ], [ 17.791901365002602, 54.814062153401999 ], [ 17.791899243955402, 54.814036072757936 ], [ 17.791897225747988, 54.814010802129772 ], [ 17.791895241996922, 54.813985447003809 ], [ 17.791893291075418, 54.813959928488543 ], [ 17.791891432830901, 54.813934986103234 ], [ 17.791889584818403, 54.813909457360396 ], [ 17.791887823317609, 54.81388433443724 ], [ 17.791886146658474, 54.813859560706945 ], [ 17.791884498848219, 54.813834241109994 ], [ 17.791882949091612, 54.813809373331416 ], [ 17.791881469503839, 54.813784463303151 ], [ 17.791880074940135, 54.813759698661201 ], [ 17.791878758616701, 54.813734893334903 ], [ 17.791877529552057, 54.813710142602609 ], [ 17.79187639244353, 54.81368546971575 ], [ 17.791875351698828, 54.81366089787533 ], [ 17.79187440607247, 54.813636311336587 ], [ 17.791873569771443, 54.813612003987508 ], [ 17.791872829923715, 54.813587495641514 ], [ 17.791872202723873, 54.813563193161741 ], [ 17.791871684698751, 54.813538834641683 ], [ 17.791871284952656, 54.813514700403246 ], [ 17.791871046324093, 54.813494301809634 ], [ 17.791873700392205, 54.813287952248466 ], [ 17.791884698459089, 54.813085187320269 ], [ 17.791904054737671, 54.812883149261303 ], [ 17.791931720246133, 54.812682238488073 ], [ 17.79196762419933, 54.812482856028304 ], [ 17.792011675416077, 54.812285393979707 ], [ 17.79206488115074, 54.812086046321753 ], [ 17.79207086012859, 54.812065369236258 ], [ 17.792077849589909, 54.812041608646993 ], [ 17.792085050770233, 54.812017524597607 ], [ 17.79209227548106, 54.81199373402324 ], [ 17.792099737751474, 54.811969521126713 ], [ 17.792107234069853, 54.811945536373038 ], [ 17.792114871606483, 54.811921422848428 ], [ 17.792122637851463, 54.811897210510992 ], [ 17.79213054208099, 54.811872860912693 ], [ 17.792138474173544, 54.811848700404845 ], [ 17.792146535816883, 54.811824406401414 ], [ 17.792154778455981, 54.811799816171302 ], [ 17.79216300795936, 54.811775497080546 ], [ 17.792171380978818, 54.811750973529058 ], [ 17.79217982505822, 54.811726447600023 ], [ 17.792188410686826, 54.811701704395446 ], [ 17.792196955260586, 54.811677257775109 ], [ 17.792205766096895, 54.811652218629348 ], [ 17.792214410969247, 54.811627803439457 ], [ 17.792223363971008, 54.811602661962063 ], [ 17.79223221352478, 54.811577940048089 ], [ 17.79224120957074, 54.811552927034576 ], [ 17.792250221801257, 54.811527974628618 ], [ 17.79225939649443, 54.811502667239729 ], [ 17.792268407319373, 54.811477892808952 ], [ 17.792277597268811, 54.811452696244075 ], [ 17.792287046954502, 54.811426847526491 ], [ 17.792296035213241, 54.811402306455079 ], [ 17.792305264032446, 54.811377143459211 ], [ 17.79231498707362, 54.811350657355774 ], [ 17.792323540796417, 54.811327367252787 ], [ 17.794209239471471, 54.806513183522618 ] ] ] ] } }
]
}
