{
"type": "FeatureCollection",
"name": "UXO Sectors",
"crs": { "type": "name", "properties": { "name": "urn:ogc:def:crs:OGC:1.3:CRS84" } },
"features": [
{ "type": "Feature", "properties": { "Id": 0, "nazwa": "GEO3_1_4", "Vessel": "Baltic Surveyor", "Piority": 2 }, "geometry": { "type": "MultiPolygon", "coordinates": [ [ [ [ 17.773938440115522, 54.815757371255266 ], [ 17.772285078459308, 54.817438504550815 ], [ 17.767323421488914, 54.822482525181293 ], [ 17.76276465041137, 54.827115679492763 ], [ 17.769610769396024, 54.82925713738554 ], [ 17.775651474988521, 54.82311653888241 ], [ 17.781729626234892, 54.816935680998533 ], [ 17.782263470210566, 54.816405897304108 ], [ 17.773938440115522, 54.815757371255266 ] ] ] ] } },
{ "type": "Feature", "properties": { "Id": 0, "nazwa": "GEO3_1_3", "Vessel": "Baltic Surveyor", "Piority": 1 }, "geometry": { "type": "MultiPolygon", "coordinates": [ [ [ [ 17.769610769396024, 54.82925713738554 ], [ 17.76276465041137, 54.827115679492763 ], [ 17.751829149110026, 54.838224566288119 ], [ 17.758566950462118, 54.840477965463727 ], [ 17.764173256187245, 54.834782710004681 ], [ 17.769610769396024, 54.82925713738554 ] ] ] ] } },
{ "type": "Feature", "properties": { "Id": 0, "nazwa": "GEO3_1_2", "Vessel": "Baltic Surveyor", "Piority": 0 }, "geometry": { "type": "MultiPolygon", "coordinates": [ [ [ [ 17.758566950462118, 54.840477965463727 ], [ 17.751829149110026, 54.838224566288119 ], [ 17.74364088420592, 54.846537999505159 ], [ 17.750536706545962, 54.848632358663281 ], [ 17.758566950462118, 54.840477965463727 ] ] ] ] } },
{ "type": "Feature", "properties": { "Id": 0, "nazwa": "GEO3_1_1", "Vessel": "Baltic Surveyor", "Piority": 0 }, "geometry": { "type": "MultiPolygon", "coordinates": [ [ [ [ 17.750536706545962, 54.848632358663281 ], [ 17.74364088420592, 54.846537999505159 ], [ 17.742509950647527, 54.847685907419098 ], [ 17.738990768420987, 54.851257423044039 ], [ 17.738521506956566, 54.851733607206988 ], [ 17.738277709801245, 54.851980995770106 ], [ 17.738190528000075, 54.852069461000042 ], [ 17.738123210516541, 54.852142467443855 ], [ 17.738031854105387, 54.852250452939636 ], [ 17.737967951000037, 54.85233430800006 ], [ 17.737890785000079, 54.85245344400002 ], [ 17.737825424000079, 54.852574908000094 ], [ 17.737772075000063, 54.852698311000026 ], [ 17.737729616051961, 54.852828936102398 ], [ 17.737702070000058, 54.852949348000031 ], [ 17.737685636000045, 54.85307617800003 ], [ 17.737681665000043, 54.853203341000061 ], [ 17.737690169000075, 54.85333043 ], [ 17.737711123000064, 54.853457038000052 ], [ 17.737744457000083, 54.853582759000055 ], [ 17.737790067000059, 54.853707191000098 ], [ 17.737847805000076, 54.853829935000071 ], [ 17.737917487000058, 54.853950597000029 ], [ 17.737998891000082, 54.854068791000032 ], [ 17.738091754000045, 54.85418414 ], [ 17.738184322828378, 54.854283922087994 ], [ 17.738310636000083, 54.854404829000075 ], [ 17.738435953000089, 54.854509463000099 ], [ 17.73857133100006, 54.854609839000076 ], [ 17.738716336000074, 54.85470563500008 ], [ 17.738870503000062, 54.854796544000067 ], [ 17.739033339000059, 54.854882276000083 ], [ 17.739177288132748, 54.854949863481444 ], [ 17.739382902000063, 54.855037125000131 ], [ 17.73956851100008, 54.855105746000064 ], [ 17.739760552000099, 54.85516819900004 ], [ 17.739958410000042, 54.855224282000044 ], [ 17.740243035811346, 54.855290651422948 ], [ 17.740580468000065, 54.855352631000059 ], [ 17.74079510000006, 54.855381656000077 ], [ 17.741012235000042, 54.855403629000101 ], [ 17.741231178000074, 54.855418478000097 ], [ 17.741451226000045, 54.855426159000075 ], [ 17.741671675000102, 54.855426642000054 ], [ 17.741891817000081, 54.855419931000071 ], [ 17.742110949000043, 54.855406044000063 ], [ 17.742328369000084, 54.855385026000079 ], [ 17.742543379000079, 54.855356945000025 ], [ 17.742755290000058, 54.855321891000109 ], [ 17.742963424000074, 54.855279976000091 ], [ 17.74316711400008, 54.855231334000074 ], [ 17.743365708000081, 54.855176122000039 ], [ 17.743558567000036, 54.855114515000068 ], [ 17.743745077000028, 54.85504671200006 ], [ 17.743924638000063, 54.854972930000052 ], [ 17.744096676000023, 54.854893405000063 ], [ 17.744260639000046, 54.854808391000063 ], [ 17.744416002000069, 54.854718162000076 ], [ 17.744562267000052, 54.85462300600004 ], [ 17.744825663000025, 54.854419148000069 ], [ 17.744962221000034, 54.854290771000073 ], [ 17.750536706545962, 54.848632358663281 ] ] ] ] } },
{ "type": "Feature", "properties": { "Id": 0, "nazwa": "GEO3_4_2", "Vessel": "Baltic Surveyor", "Piority": 2 }, "geometry": { "type": "MultiPolygon", "coordinates": [ [ [ [ 17.793176147969952, 54.824206476314487 ], [ 17.790066672001721, 54.824306487949208 ], [ 17.79084887512872, 54.833230124806683 ], [ 17.793955045249866, 54.833138044322894 ], [ 17.793176147969952, 54.824206476314487 ] ] ] ] } },
{ "type": "Feature", "properties": { "Id": 0, "nazwa": "GEO3_4_1", "Vessel": "Baltic Surveyor", "Piority": 1 }, "geometry": { "type": "MultiPolygon", "coordinates": [ [ [ [ 17.791536481000051, 54.841091002000041 ], [ 17.794646954000036, 54.840994618000074 ], [ 17.793955045249866, 54.833138044322894 ], [ 17.79084887512872, 54.833230124806683 ], [ 17.791536481000051, 54.841091002000041 ] ] ] ] } },
{ "type": "Feature", "properties": { "Id": 0, "nazwa": "GEO3_2_3", "Vessel": "Baltic Surveyor", "Piority": 1 }, "geometry": { "type": "MultiPolygon", "coordinates": [ [ [ [ 17.791536481000051, 54.841091002000041 ], [ 17.792121612875626, 54.847323198967487 ], [ 17.795239095078607, 54.847296335844632 ], [ 17.794646954000036, 54.840994618000074 ], [ 17.791536481000051, 54.841091002000041 ] ] ] ] } },
{ "type": "Feature", "properties": { "Id": 0, "nazwa": "GEO3_2_2", "Vessel": "Baltic Surveyor", "Piority": 0 }, "geometry": { "type": "MultiPolygon", "coordinates": [ [ [ [ 17.792121612875626, 54.847323198967487 ], [ 17.792669198195096, 54.853153766089591 ], [ 17.795789111967121, 54.853148013372973 ], [ 17.795239095078607, 54.847296335844632 ], [ 17.792121612875626, 54.847323198967487 ] ] ] ] } },
{ "type": "Feature", "properties": { "Id": 0, "nazwa": "GEO3_2_1", "Vessel": "Baltic Surveyor", "Piority": 0 }, "geometry": { "type": "MultiPolygon", "coordinates": [ [ [ [ 17.792669198195096, 54.853153766089591 ], [ 17.793139959000051, 54.858162178000065 ], [ 17.793156336000045, 54.858242278000041 ], [ 17.793185095000091, 54.858321209000046 ], [ 17.793226002000051, 54.858398334000057 ], [ 17.793278729000068, 54.858473034000056 ], [ 17.793342851000052, 54.858544705000057 ], [ 17.793417853000065, 54.858612773000083 ], [ 17.793503130000047, 54.858676689000056 ], [ 17.793597993000063, 54.858735937000063 ], [ 17.793701683000048, 54.858790040000066 ], [ 17.793813363000034, 54.858838564000031 ], [ 17.793932132000069, 54.858881119000024 ], [ 17.794057038000066, 54.858917359000053 ], [ 17.794187071000081, 54.858946995000075 ], [ 17.794321185000062, 54.858969786000067 ], [ 17.794458303000049, 54.858985551000075 ], [ 17.794597316000033, 54.858994162000037 ], [ 17.794737110000035, 54.858995550000031 ], [ 17.794876554000037, 54.858989703000077 ], [ 17.795014531000064, 54.858976668000096 ], [ 17.795149925000036, 54.85895655100007 ], [ 17.795281649000056, 54.858929514000074 ], [ 17.795408641000058, 54.858895774000061 ], [ 17.795529878000025, 54.858855601000059 ], [ 17.795644385000063, 54.858809322000084 ], [ 17.795751240000108, 54.858757308000079 ], [ 17.795849580000045, 54.858699978000054 ], [ 17.795938618000061, 54.85863779200006 ], [ 17.79601763400008, 54.858571253000015 ], [ 17.796085993000091, 54.858500897000049 ], [ 17.796143143000052, 54.858427287000033 ], [ 17.796188625000092, 54.858351020000029 ], [ 17.796222074000088, 54.858272707 ], [ 17.796243217000047, 54.85819297900008 ], [ 17.796251889000082, 54.858112479000056 ], [ 17.796206050294725, 54.857582737711212 ], [ 17.795789111967121, 54.853148013372973 ], [ 17.792669198195096, 54.853153766089591 ] ] ] ] } },
{ "type": "Feature", "properties": { "Id": 0, "nazwa": "GEO3_4_3", "Vessel": "Baltic Surveyor", "Piority": 2 }, "geometry": { "type": "MultiPolygon", "coordinates": [ [ [ [ 17.790066672001721, 54.824306487949208 ], [ 17.793176147969952, 54.824206476314487 ], [ 17.792523344979401, 54.816730574128364 ], [ 17.789412087674705, 54.816796626443526 ], [ 17.789918918532731, 54.822611594107904 ], [ 17.790066672001721, 54.824306487949208 ] ] ] ] } },
{ "type": "Feature", "properties": { "Id": 0, "nazwa": "GEO3_1_5", "Vessel": "Geo Scanner", "Piority": 3 }, "geometry": { "type": "MultiPolygon", "coordinates": [ [ [ [ 17.773938440115522, 54.81575737125528 ], [ 17.782263470210573, 54.816405897304108 ], [ 17.783099646356877, 54.815542206683972 ], [ 17.783692339926507, 54.814939331705048 ], [ 17.784401850908843, 54.814217605124298 ], [ 17.78491320856979, 54.81369742484069 ], [ 17.785344983550015, 54.813258188158827 ], [ 17.785720518500241, 54.812876154341957 ], [ 17.786035045174433, 54.812556178160172 ], [ 17.786296375000056, 54.812290316000052 ], [ 17.786381424000069, 54.812198941000069 ], [ 17.786444788000061, 54.81212364400006 ], [ 17.786489054000089, 54.81206749800004 ], [ 17.786571807000044, 54.811949634 ], [ 17.78660232539815, 54.811897945394875 ], [ 17.786642882000031, 54.811829255000106 ], [ 17.786668999000046, 54.811778707000066 ], [ 17.78671091800005, 54.811689265000034 ], [ 17.786740728000051, 54.811614618000085 ], [ 17.786799796301104, 54.811454273027408 ], [ 17.787313712940247, 54.810059155380479 ], [ 17.787840176448046, 54.808629874242008 ], [ 17.788249612098404, 54.807518237013973 ], [ 17.788628026659509, 54.806490767645926 ], [ 17.788787812000106, 54.806056903000083 ], [ 17.78873034759248, 54.806046905751714 ], [ 17.78860933659703, 54.806025853015697 ], [ 17.788548101332093, 54.806015199633109 ], [ 17.78836095507269, 54.80598264070602 ], [ 17.788216042899148, 54.805957429255592 ], [ 17.788161322000054, 54.805947909000054 ], [ 17.788049257058422, 54.805934354619971 ], [ 17.787880447072155, 54.805913936651017 ], [ 17.787661766642781, 54.805887486354358 ], [ 17.787508633585624, 54.805868964026963 ], [ 17.787351663330959, 54.805849977350569 ], [ 17.787136672546808, 54.805823972317789 ], [ 17.786850520000066, 54.805789359000094 ], [ 17.786690841567083, 54.805770337904427 ], [ 17.786483448452323, 54.805745632635237 ], [ 17.786292337878653, 54.805722866649575 ], [ 17.785982962452952, 54.8056860117103 ], [ 17.785499867334412, 54.805628460371267 ], [ 17.785300100640963, 54.805605616360126 ], [ 17.785095081970994, 54.805583788753374 ], [ 17.78484113256976, 54.805556751153929 ], [ 17.784443195046798, 54.805514382220487 ], [ 17.784344545318671, 54.805503878638284 ], [ 17.784314191471324, 54.805500646740583 ], [ 17.784264427859384, 54.805495348188707 ], [ 17.784205118779049, 54.805489033260216 ], [ 17.784148126049633, 54.80548296493577 ], [ 17.784105347000061, 54.805478410000028 ], [ 17.784042703621211, 54.805473426785596 ], [ 17.783930563782647, 54.805464506096385 ], [ 17.78385017688964, 54.805458111278007 ], [ 17.783760704939422, 54.805450993673745 ], [ 17.783475367519785, 54.805428294272431 ], [ 17.783081460705993, 54.805396956724771 ], [ 17.782841917000042, 54.805377899000071 ], [ 17.782653656192402, 54.805353768786723 ], [ 17.782222660760837, 54.805298525003863 ], [ 17.781957995859152, 54.805264600168769 ], [ 17.781709638000034, 54.805232765000014 ], [ 17.781457752397685, 54.805211139799333 ], [ 17.781154222000065, 54.805185080000058 ], [ 17.779248162000059, 54.81035736000009 ], [ 17.773938440115522, 54.81575737125528 ] ] ] ] } },
{ "type": "Feature", "properties": { "Id": 0, "nazwa": "GEO3_4_4", "Vessel": "Geo Scanner", "Piority": 4 }, "geometry": { "type": "MultiPolygon", "coordinates": [ [ [ [ 17.789412087674741, 54.816796626443534 ], [ 17.792523344979426, 54.816730574128385 ], [ 17.792180511000019, 54.812799695000074 ], [ 17.792408396990691, 54.81217925127843 ], [ 17.794484062000038, 54.806527117000044 ], [ 17.792570035000033, 54.806451243000055 ], [ 17.791360789000063, 54.806368448000086 ], [ 17.78906841500006, 54.812631814000071 ], [ 17.789061475000036, 54.812773017000076 ], [ 17.789301089603317, 54.815522789020434 ], [ 17.789412087674741, 54.816796626443534 ] ] ] ] } }
]
}
